     2.100          NAVIGATION                              RINEX VERSION / TYPE
fic2rin                                 04/21/2009 02:04:49 PGM / RUN BY / DATE
                                                            END OF HEADER
13 09  4 21  0  0  0.0  .295047182590D-03  .102318153949D-11  .000000000000D+00
     .860000000000D+02 -.446875000000D+01  .370122559947D-08 -.379867935481D+00
    -.424683094025D-06  .404766795691D-02  .113844871521D-04  .515372558975D+04
     .172800000000D+06 -.204890966415D-07  .238238117439D+01  .558793544769D-08
     .995043931139D+00  .182531250000D+03  .153817767164D+01 -.766389066038D-08
    -.610739725475D-10  .100000000000D+01  .152800000000D+04  .000000000000D+00
     .240000000000D+01  .000000000000D+00 -.111758708954D-07  .860000000000D+02
     .165606000000D+06  .400000000000D+01
14 09  4 21  0  0  0.0 -.122739002109D-03  .579802872380D-11  .000000000000D+00
     .690000000000D+02 -.205000000000D+02  .385908931799D-08 -.627658025253D+00
    -.987201929092D-06  .437130406499D-02  .106208026409D-04  .515360030365D+04
     .172800000000D+06 -.502914190292D-07  .236310638898D+01  .745058059692D-07
     .988560961395D+00  .192437500000D+03 -.213317680857D+01 -.772282168652D-08
    -.104290058385D-09  .100000000000D+01  .152800000000D+04  .000000000000D+00
     .240000000000D+01  .000000000000D+00 -.931322574615D-08  .690000000000D+02
     .165606000000D+06  .400000000000D+01
15 09  4 21  0  0  0.0 -.283383764327D-03 -.420641299570D-11  .000000000000D+00
     .530000000000D+02 -.307187500000D+02  .452018828399D-08 -.386107798962D+00
    -.163540244102D-05  .143075932283D-02  .108126550913D-04  .515361130524D+04
     .172800000000D+06 -.558793544769D-08  .231178948004D+01 -.931322574615D-08
     .956581324949D+00  .165968750000D+03 -.512219251782D+00 -.807926510525D-08
    -.102861427448D-09  .100000000000D+01  .152800000000D+04  .000000000000D+00
     .240000000000D+01  .000000000000D+00 -.977888703346D-08  .530000000000D+02
     .165606000000D+06  .400000000000D+01
16 09  4 21  0  0  0.0  .577345490456D-04 -.318323145621D-11  .000000000000D+00
     .107000000000D+03 -.455625000000D+02  .466090843126D-08  .107296734080D+01
    -.235624611378D-05  .530988594983D-02  .447034835815D-05  .515380113220D+04
     .172800000000D+06  .521540641785D-07 -.184174497299D+01 -.186264514923D-08
     .967740380671D+00  .290156250000D+03 -.365476029761D+00 -.828605943335D-08
    -.354657630057D-09  .100000000000D+01  .152800000000D+04  .000000000000D+00
     .340000000000D+01  .000000000000D+00 -.977888703346D-08  .107000000000D+03
     .165606000000D+06  .400000000000D+01
17 09  4 21  0  0  0.0  .551841221750D-04  .170530256582D-11  .000000000000D+00
     .850000000000D+02 -.274375000000D+02  .436946772015D-08 -.704329516437D-02
    -.146403908730D-05  .443888048176D-02  .115744769573D-04  .515367311668D+04
     .172800000000D+06  .912696123123D-07 -.799202410537D+00  .707805156708D-07
     .959761286070D+00  .155625000000D+03 -.266730616833D+01 -.801497671309D-08
    -.187507810453D-09  .100000000000D+01  .152800000000D+04  .000000000000D+00
     .240000000000D+01  .000000000000D+00 -.102445483208D-07  .850000000000D+02
     .165606000000D+06  .400000000000D+01
18 09  4 21  0  0  0.0 -.638077035546D-04  .341060513165D-11  .000000000000D+00
     .830000000000D+02 -.219375000000D+02  .530164940641D-08  .124792112396D+01
    -.120140612125D-05  .101952367695D-01  .426173210144D-05  .515358801460D+04
     .172800000000D+06 -.100582838058D-06  .130849026122D+01  .875443220139D-07
     .942646946858D+00  .286843750000D+03 -.242768457716D+01 -.872822070828D-08
    -.221437795202D-09  .100000000000D+01  .152800000000D+04  .000000000000D+00
     .240000000000D+01  .000000000000D+00 -.107102096081D-07  .830000000000D+02
     .165606000000D+06  .400000000000D+01
19 09  4 21  0  0  0.0  .278064981103D-04 -.909494701773D-12  .000000000000D+00
     .590000000000D+02 -.124687500000D+02  .430196490839D-08 -.650196465327D+00
    -.707805156708D-06  .547129381448D-02  .113267451525D-04  .515359529686D+04
     .172800000000D+06 -.111758708954D-07 -.743041049842D+00 -.214204192162D-06
     .957528744344D+00  .162562500000D+03 -.375316117080D+00 -.788890003292D-08
    -.190007914592D-09  .100000000000D+01  .152800000000D+04  .000000000000D+00
     .240000000000D+01  .000000000000D+00 -.144354999065D-07  .590000000000D+02
     .165606000000D+06  .400000000000D+01
20 09  4 21  0  0  0.0  .847824849188D-04 -.102318153949D-11  .000000000000D+00
     .106000000000D+03 -.197187500000D+02  .522307470488D-08  .140841064987D+01
    -.102445483208D-05  .403663795441D-02  .454671680927D-05  .515362452888D+04
     .172800000000D+06 -.968575477600D-07  .125464212511D+01 -.428408384323D-07
     .942301663081D+00  .279468750000D+03  .134585971651D+01 -.860214402811D-08
    -.871464871438D-10  .100000000000D+01  .152800000000D+04  .000000000000D+00
     .340000000000D+01  .000000000000D+00 -.651925802231D-08  .106000000000D+03
     .165606000000D+06  .400000000000D+01
21 09  4 21  0  0  0.0  .181789509952D-04 -.204636307899D-11  .000000000000D+00
     .860000000000D+02  .728125000000D+02  .503556689443D-08  .255264934798D+01
     .371970236301D-05  .150586123345D-01  .789202749729D-05  .515362626076D+04
     .172800000000D+06 -.225380063057D-06  .249989265262D+00 -.219792127609D-06
     .934670033467D+00  .212968750000D+03 -.261996170664D+01 -.822284251440D-08
     .408945605655D-09  .100000000000D+01  .152800000000D+04  .000000000000D+00
     .240000000000D+01  .000000000000D+00 -.121071934700D-07  .860000000000D+02
     .165606000000D+06  .400000000000D+01
22 09  4 21  0  0  0.0  .201223883778D-03 -.682121026330D-12  .000000000000D+00
     .770000000000D+02 -.257812500000D+02  .533200781381D-08  .203540598054D+00
    -.144541263580D-05  .489744532388D-02  .438652932644D-05  .515365819168D+04
     .172800000000D+06 -.745058059692D-07  .131425733006D+01  .186264514923D-08
     .940308134374D+00  .284812500000D+03 -.186307452046D+01 -.870393398236D-08
    -.131434046184D-09  .100000000000D+01  .152800000000D+04  .000000000000D+00
     .485000000000D+01  .000000000000D+00 -.176951289177D-07  .770000000000D+02
     .165606000000D+06  .400000000000D+01
23 09  4 21  0  0  0.0  .389542430639D-03  .341060513165D-12  .000000000000D+00
     .550000000000D+02 -.132812500000D+02  .426482050404D-08 -.119214773061D+01
    -.964850187302D-06  .596609688364D-02  .104159116745D-04  .515362184143D+04
     .172800000000D+06  .298023223877D-07  .233123920120D+01 -.596046447754D-07
     .970544250424D+00  .184281250000D+03  .287626870944D+01 -.791782980939D-08
    -.142863093678D-10  .100000000000D+01  .152800000000D+04  .000000000000D+00
     .240000000000D+01  .000000000000D+00 -.200234353542D-07  .550000000000D+02
     .165606000000D+06  .400000000000D+01
24 09  4 21  0  0  0.0  .182817690074D-03  .295585778076D-11  .000000000000D+00
     .650000000000D+02  .659375000000D+02  .474055460598D-08  .118571754441D+01
     .353343784809D-05  .676361180376D-02  .765547156334D-05  .515367621994D+04
     .172800000000D+06  .186264514923D-06  .281492525842D+00 -.167638063431D-07
     .951294878827D+00  .226875000000D+03 -.645556332024D+00 -.820819904729D-08
     .427874965567D-09  .100000000000D+01  .152800000000D+04  .000000000000D+00
     .340000000000D+01  .000000000000D+00 -.139698386192D-08  .650000000000D+02
     .165606000000D+06  .400000000000D+01
25 09  4 21  0  0  0.0  .370505265892D-03  .209183781408D-10  .000000000000D+00
     .102000000000D+03  .506250000000D+02  .449911597767D-08  .168105112278D+01
     .250712037086D-05  .115537085803D-01  .735372304916D-05  .515365422249D+04
     .172800000000D+06  .264495611191D-06 -.300489573767D+01 -.141561031342D-06
     .969465614591D+00  .240000000000D+03 -.120839679474D+01 -.798926135623D-08
     .314655963827D-09  .100000000000D+01  .152800000000D+04  .000000000000D+00
     .485000000000D+01  .000000000000D+00 -.745058059692D-08  .102000000000D+03
     .165606000000D+06  .400000000000D+01
26 09  4 21  0  0  0.0  .577154569328D-04  .170530256582D-11  .000000000000D+00
     .290000000000D+02 -.220625000000D+02  .362943689490D-08 -.214971625755D+01
    -.136904418468D-05  .203790976666D-01  .110603868961D-04  .515487813759D+04
     .172800000000D+06  .262632966042D-06  .238007936934D+01 -.577419996262D-07
     .992895603756D+00  .173906250000D+03  .995284962985D+00 -.734780606562D-08
     .123576576032D-09  .100000000000D+01  .152800000000D+04  .000000000000D+00
     .240000000000D+01  .000000000000D+00 -.651925802231D-08  .290000000000D+02
     .165606000000D+06  .400000000000D+01
28 09  4 21  0  0  0.0 -.241226516664D-04 -.227373675443D-12  .000000000000D+00
     .230000000000D+02 -.474687500000D+02  .481448625696D-08  .480987486854D+00
    -.225938856602D-05  .148637414677D-01  .541843473911D-05  .515363987923D+04
     .172800000000D+06 -.188127160072D-06 -.183351127212D+01  .109896063805D-06
     .965930878281D+00  .280968750000D+03 -.203053171452D+01 -.856535678149D-08
    -.421088968617D-09  .100000000000D+01  .152800000000D+04  .000000000000D+00
     .240000000000D+01  .000000000000D+00 -.107102096081D-07  .230000000000D+02
     .165606000000D+06  .400000000000D+01
29 09  4 21  0  0  0.0  .118650496006D-04  .420641299570D-11  .000000000000D+00
     .460000000000D+02 -.358125000000D+02  .427089218552D-08  .257492965616D+01
    -.187195837498D-05  .341035577003D-02  .110212713480D-04  .515370315170D+04
     .172800000000D+06  .931322574615D-08 -.791007039590D+00  .558793544769D-07
     .959979832865D+00  .165812500000D+03 -.133706237964D+01 -.779103881375D-08
    -.204294223960D-09  .100000000000D+01  .152800000000D+04  .000000000000D+00
     .240000000000D+01  .000000000000D+00 -.884756445885D-08  .460000000000D+02
     .165606000000D+06  .400000000000D+01
